COSMOS 2550             
1 48865U 21056A   25318.75195391  .00000519  00000+0  21570-4 0  9997
2 48865  67.1442  28.5905 0008347 271.4822  88.5376 15.33890068245836
CZ-2C R/B               
1 52794U 22058K   25319.62335263  .00030903  00000+0  58701-3 0  9992
2 52794  50.1902 181.6419 0048430  86.0695 274.5807 15.46669105192434
GSLV R/B                
1 54149U 22138AN  25319.63197146  .00004621  00000+0  40877-3 0  9997
2 54149  87.3856 204.5468 0020446 199.7511 160.2931 14.95933903166876
XRISM                   
1 57800U 23137A   25319.66872219  .00008826  00000+0  52450-3 0  9999
2 57800  31.0032 300.2775 0007933 329.7279  30.2900 15.09958523120538
ACS3                    
1 59588U 24077B   25319.51003128  .00034038  00000+0  30195-1 0  9991
2 59588  97.3054 281.1675 0058749  23.0378 337.3397 13.83853629 78379
