CCSDS_OMM_VERS = 2.0
CREATION_DATE  = 
ORIGINATOR     = 

OBJECT_NAME    = COSMOS 2550
OBJECT_ID      = 2021-056A
CENTER_NAME    = EARTH
REF_FRAME      = TEME
TIME_SYSTEM    = UTC
MEAN_ELEMENT_THEORY = SGP/SGP4

EPOCH          = 2025-11-14T18:02:48.817824
MEAN_MOTION    = 15.33890068
ECCENTRICITY   = .0008347
INCLINATION    = 67.1442
RA_OF_ASC_NODE = 28.5905
ARG_OF_PERICENTER = 271.4822
MEAN_ANOMALY   = 88.5376

EPHEMERIS_TYPE = 0
CLASSIFICATION_TYPE = U
NORAD_CAT_ID   = 48865
ELEMENT_SET_NO = 999
REV_AT_EPOCH   = 24583
BSTAR          = .2157E-4
MEAN_MOTION_DOT = .519E-5
MEAN_MOTION_DDOT = 0

CCSDS_OMM_VERS = 2.0
CREATION_DATE  = 
ORIGINATOR     = 

OBJECT_NAME    = CZ-2C R/B
OBJECT_ID      = 2022-058K
CENTER_NAME    = EARTH
REF_FRAME      = TEME
TIME_SYSTEM    = UTC
MEAN_ELEMENT_THEORY = SGP/SGP4

EPOCH          = 2025-11-15T14:57:37.667232
MEAN_MOTION    = 15.46669105
ECCENTRICITY   = .004843
INCLINATION    = 50.1902
RA_OF_ASC_NODE = 181.6419
ARG_OF_PERICENTER = 86.0695
MEAN_ANOMALY   = 274.5807

EPHEMERIS_TYPE = 0
CLASSIFICATION_TYPE = U
NORAD_CAT_ID   = 52794
ELEMENT_SET_NO = 999
REV_AT_EPOCH   = 19243
BSTAR          = .58701E-3
MEAN_MOTION_DOT = .30903E-3
MEAN_MOTION_DDOT = 0

CCSDS_OMM_VERS = 2.0
CREATION_DATE  = 
ORIGINATOR     = 

OBJECT_NAME    = GSLV R/B
OBJECT_ID      = 2022-138AN
CENTER_NAME    = EARTH
REF_FRAME      = TEME
TIME_SYSTEM    = UTC
MEAN_ELEMENT_THEORY = SGP/SGP4

EPOCH          = 2025-11-15T15:10:02.334144
MEAN_MOTION    = 14.95933903
ECCENTRICITY   = .0020446
INCLINATION    = 87.3856
RA_OF_ASC_NODE = 204.5468
ARG_OF_PERICENTER = 199.7511
MEAN_ANOMALY   = 160.2931

EPHEMERIS_TYPE = 0
CLASSIFICATION_TYPE = U
NORAD_CAT_ID   = 54149
ELEMENT_SET_NO = 999
REV_AT_EPOCH   = 16687
BSTAR          = .40877E-3
MEAN_MOTION_DOT = .4621E-4
MEAN_MOTION_DDOT = 0

CCSDS_OMM_VERS = 2.0
CREATION_DATE  = 
ORIGINATOR     = 

OBJECT_NAME    = XRISM
OBJECT_ID      = 2023-137A
CENTER_NAME    = EARTH
REF_FRAME      = TEME
TIME_SYSTEM    = UTC
MEAN_ELEMENT_THEORY = SGP/SGP4

EPOCH          = 2025-11-15T16:02:57.597216
MEAN_MOTION    = 15.09958523
ECCENTRICITY   = .0007933
INCLINATION    = 31.0032
RA_OF_ASC_NODE = 300.2775
ARG_OF_PERICENTER = 329.7279
MEAN_ANOMALY   = 30.2900

EPHEMERIS_TYPE = 0
CLASSIFICATION_TYPE = U
NORAD_CAT_ID   = 57800
ELEMENT_SET_NO = 999
REV_AT_EPOCH   = 12053
BSTAR          = .5245E-3
MEAN_MOTION_DOT = .8826E-4
MEAN_MOTION_DDOT = 0

CCSDS_OMM_VERS = 2.0
CREATION_DATE  = 
ORIGINATOR     = 

OBJECT_NAME    = ACS3
OBJECT_ID      = 2024-077B
CENTER_NAME    = EARTH
REF_FRAME      = TEME
TIME_SYSTEM    = UTC
MEAN_ELEMENT_THEORY = SGP/SGP4

EPOCH          = 2025-11-15T12:14:26.702592
MEAN_MOTION    = 13.83853629
ECCENTRICITY   = .0058749
INCLINATION    = 97.3054
RA_OF_ASC_NODE = 281.1675
ARG_OF_PERICENTER = 23.0378
MEAN_ANOMALY   = 337.3397

EPHEMERIS_TYPE = 0
CLASSIFICATION_TYPE = U
NORAD_CAT_ID   = 59588
ELEMENT_SET_NO = 999
REV_AT_EPOCH   = 7837
BSTAR          = .30195E-1
MEAN_MOTION_DOT = .34038E-3
MEAN_MOTION_DDOT = 0

